{
  "type": "FeatureCollection",
  "features": [
    {
      "type": "Feature",
      "properties": {
        "norad_id": 40115,
        "name": "WORLDVIEW-3 (WV-3)",
        "group": "resource",
        "lat": -33.66139620712251,
        "lon": -133.70212097220906,
        "alt_km": 615.355477682685,
        "timestamp": "2025-12-05T04:52:14.978946+00:00",
        "meta_object_name": "WORLDVIEW-3 (WV-3)",
        "meta_object_id": "2014-048A",
        "meta_epoch": "2025-12-04T16:35:39.272064",
        "meta_mean_motion": 14.8548034,
        "meta_eccentricity": 0.0004187,
        "meta_inclination": 97.8628,
        "meta_ra_of_asc_node": 51.0731,
        "meta_arg_of_pericenter": 213.3048,
        "meta_mean_anomaly": 146.7904,
        "meta_ephemeris_type": 0,
        "meta_classification_type": "U",
        "meta_norad_cat_id": 40115,
        "meta_element_set_no": 999,
        "meta_rev_at_epoch": 61304,
        "meta_bstar": 0.00034394,
        "meta_mean_motion_dot": 2.915e-05,
        "meta_mean_motion_ddot": 0,
        "tle_line1": "1 40115U 14048A   25338.69142676  .00002915  00000+0  34394-3 0  9992",
        "tle_line2": "2 40115  97.8628  51.0731 0004187 213.3048 146.7904 14.85480340613043"
      },
      "geometry": {
        "type": "Point",
        "coordinates": [
          -133.70212097220906,
          -33.66139620712251
        ]
      }
    },
    {
      "type": "Feature",
      "properties": {
        "norad_id": 40118,
        "name": "GAOFEN-2",
        "group": "resource",
        "lat": 15.745592014922119,
        "lon": -139.35811154433532,
        "alt_km": 623.1730778991669,
        "timestamp": "2025-12-05T04:52:14.978955+00:00",
        "meta_object_name": "GAOFEN-2",
        "meta_object_id": "2014-049A",
        "meta_epoch": "2025-12-04T18:24:04.671072",
        "meta_mean_motion": 14.80586684,
        "meta_eccentricity": 0.000828,
        "meta_inclination": 98.0396,
        "meta_ra_of_asc_node": 37.921,
        "meta_arg_of_pericenter": 135.9202,
        "meta_mean_anomaly": 224.2671,
        "meta_ephemeris_type": 0,
        "meta_classification_type": "U",
        "meta_norad_cat_id": 40118,
        "meta_element_set_no": 999,
        "meta_rev_at_epoch": 61046,
        "meta_bstar": 0.00020358,
        "meta_mean_motion_dot": 1.509e-05,
        "meta_mean_motion_ddot": 0,
        "tle_line1": "1 40118U 14049A   25338.76672073  .00001509  00000+0  20358-3 0  9996",
        "tle_line2": "2 40118  98.0396  37.9210 0008280 135.9202 224.2671 14.80586684610464"
      },
      "geometry": {
        "type": "Point",
        "coordinates": [
          -139.35811154433532,
          15.745592014922119
        ]
      }
    },
    {
      "type": "Feature",
      "properties": {
        "norad_id": 40143,
        "name": "YAOGAN-21",
        "group": "resource",
        "lat": 42.117125992099105,
        "lon": 16.302547917771175,
        "alt_km": 485.3130757853469,
        "timestamp": "2025-12-05T04:52:14.978964+00:00",
        "meta_object_name": "YAOGAN-21",
        "meta_object_id": "2014-053A",
        "meta_epoch": "2025-12-04T17:39:03.433824",
        "meta_mean_motion": 15.2352677,
        "meta_eccentricity": 0.0010195,
        "meta_inclination": 97.1769,
        "meta_ra_of_asc_node": 22.397,
        "meta_arg_of_pericenter": 66.1435,
        "meta_mean_anomaly": 294.087,
        "meta_ephemeris_type": 0,
        "meta_classification_type": "U",
        "meta_norad_cat_id": 40143,
        "meta_element_set_no": 999,
        "meta_rev_at_epoch": 62532,
        "meta_bstar": 0.00060321,
        "meta_mean_motion_dot": 0.00014375,
        "meta_mean_motion_ddot": 0,
        "tle_line1": "1 40143U 14053A   25338.73545641  .00014375  00000+0  60321-3 0  9995",
        "tle_line2": "2 40143  97.1769  22.3970 0010195  66.1435 294.0870 15.23526770625323"
      },
      "geometry": {
        "type": "Point",
        "coordinates": [
          16.302547917771175,
          42.117125992099105
        ]
      }
    },
    {
      "type": "Feature",
      "properties": {
        "norad_id": 40275,
        "name": "YAOGAN-22",
        "group": "resource",
        "lat": 63.946251138085415,
        "lon": -34.638205236715,
        "alt_km": 1199.4748533662769,
        "timestamp": "2025-12-05T04:52:14.978973+00:00",
        "meta_object_name": "YAOGAN-22",
        "meta_object_id": "2014-063A",
        "meta_epoch": "2025-12-04T08:12:58.061088",
        "meta_mean_motion": 13.15522481,
        "meta_eccentricity": 0.0005885,
        "meta_inclination": 100.7418,
        "meta_ra_of_asc_node": 121.6434,
        "meta_arg_of_pericenter": 268.4921,
        "meta_mean_anomaly": 91.5516,
        "meta_ephemeris_type": 0,
        "meta_classification_type": "U",
        "meta_norad_cat_id": 40275,
        "meta_element_set_no": 999,
        "meta_rev_at_epoch": 53419,
        "meta_bstar": 0.00013704,
        "meta_mean_motion_dot": 5e-08,
        "meta_mean_motion_ddot": 0,
        "tle_line1": "1 40275U 14063A   25338.34233867  .00000005  00000+0  13704-3 0  9991",
        "tle_line2": "2 40275 100.7418 121.6434 0005885 268.4921  91.5516 13.15522481534191"
      },
      "geometry": {
        "type": "Point",
        "coordinates": [
          -34.638205236715,
          63.946251138085415
        ]
      }
    },
    {
      "type": "Feature",
      "properties": {
        "norad_id": 40298,
        "name": "ASNARO",
        "group": "resource",
        "lat": -25.063250599495362,
        "lon": -128.1331004517681,
        "alt_km": 512.0056830105095,
        "timestamp": "2025-12-05T04:52:14.978982+00:00",
        "meta_object_name": "ASNARO",
        "meta_object_id": "2014-070A",
        "meta_epoch": "2025-12-04T16:54:20.579040",
        "meta_mean_motion": 15.19239183,
        "meta_eccentricity": 0.0005187,
        "meta_inclination": 97.3668,
        "meta_ra_of_asc_node": 54.8494,
        "meta_arg_of_pericenter": 145.9599,
        "meta_mean_anomaly": 214.1969,
        "meta_ephemeris_type": 0,
        "meta_classification_type": "U",
        "meta_norad_cat_id": 40298,
        "meta_element_set_no": 999,
        "meta_rev_at_epoch": 61447,
        "meta_bstar": 0.0012761,
        "meta_mean_motion_dot": 0.00026904,
        "meta_mean_motion_ddot": 0,
        "tle_line1": "1 40298U 14070A   25338.70440485  .00026904  00000+0  12761-2 0  9997",
        "tle_line2": "2 40298  97.3668  54.8494 0005187 145.9599 214.1969 15.19239183614477"
      },
      "geometry": {
        "type": "Point",
        "coordinates": [
          -128.1331004517681,
          -25.063250599495362
        ]
      }
    },
    {
      "type": "Feature",
      "properties": {
        "norad_id": 40310,
        "name": "YAOGAN-24",
        "group": "resource",
        "lat": -81.60298914900997,
        "lon": -145.07885879704176,
        "alt_km": 651.7021582718407,
        "timestamp": "2025-12-05T04:52:14.978991+00:00",
        "meta_object_name": "YAOGAN-24",
        "meta_object_id": "2014-072A",
        "meta_epoch": "2025-12-04T17:54:02.869056",
        "meta_mean_motion": 14.76150779,
        "meta_eccentricity": 0.0014338,
        "meta_inclination": 98.1218,
        "meta_ra_of_asc_node": 109.7969,
        "meta_arg_of_pericenter": 162.7671,
        "meta_mean_anomaly": 197.4028,
        "meta_ephemeris_type": 0,
        "meta_classification_type": "U",
        "meta_norad_cat_id": 40310,
        "meta_element_set_no": 999,
        "meta_rev_at_epoch": 59503,
        "meta_bstar": 0.00027742,
        "meta_mean_motion_dot": 1.867e-05,
        "meta_mean_motion_ddot": 0,
        "tle_line1": "1 40310U 14072A   25338.74586654  .00001867  00000+0  27742-3 0  9994",
        "tle_line2": "2 40310  98.1218 109.7969 0014338 162.7671 197.4028 14.76150779595039"
      },
      "geometry": {
        "type": "Point",
        "coordinates": [
          -145.07885879704176,
          -81.60298914900997
        ]
      }
    },
    {
      "type": "Feature",
      "properties": {
        "norad_id": 40336,
        "name": "CBERS 4",
        "group": "resource",
        "lat": 29.03386240505985,
        "lon": 32.8113646636097,
        "alt_km": 771.9906791159401,
        "timestamp": "2025-12-05T04:52:14.979000+00:00",
        "meta_object_name": "CBERS 4",
        "meta_object_id": "2014-079A",
        "meta_epoch": "2025-12-04T18:41:50.492832",
        "meta_mean_motion": 14.35513034,
        "meta_eccentricity": 0.0001461,
        "meta_inclination": 98.3321,
        "meta_ra_of_asc_node": 37.068,
        "meta_arg_of_pericenter": 122.7675,
        "meta_mean_anomaly": 237.3653,
        "meta_ephemeris_type": 0,
        "meta_classification_type": "U",
        "meta_norad_cat_id": 40336,
        "meta_element_set_no": 999,
        "meta_rev_at_epoch": 57606,
        "meta_bstar": 0.00012804,
        "meta_mean_motion_dot": 3.26e-06,
        "meta_mean_motion_ddot": 0,
        "tle_line1": "1 40336U 14079A   25338.77905663  .00000326  00000+0  12804-3 0  9999",
        "tle_line2": "2 40336  98.3321  37.0680 0001461 122.7675 237.3653 14.35513034576062"
      },
      "geometry": {
        "type": "Point",
        "coordinates": [
          32.8113646636097,
          29.03386240505985
        ]
      }
    }
  ]
}